[{"OBJECT_NAME":"OBJECT F","OBJECT_ID":"2024-092F","EPOCH":"2026-03-09T21:54:46.147104","MEAN_MOTION":15.3361444,"ECCENTRICITY":0.00086458,"INCLINATION":97.6418,"RA_OF_ASC_NODE":198.4543,"ARG_OF_PERICENTER":142.6506,"MEAN_ANOMALY":217.5339,"EPHEMERIS_TYPE":0,"CLASSIFICATION_TYPE":"U","NORAD_CAT_ID":59778,"ELEMENT_SET_NO":999,"REV_AT_EPOCH":10053,"BSTAR":0.0007914277,"MEAN_MOTION_DOT":0.00025723,"MEAN_MOTION_DDOT":0},{"OBJECT_NAME":"STARLINK-32411","OBJECT_ID":"2024-184R","EPOCH":"2026-03-09T03:36:16.176672","MEAN_MOTION":15.30192458,"ECCENTRICITY":9.965e-5,"INCLINATION":53.1624,"RA_OF_ASC_NODE":16.5001,"ARG_OF_PERICENTER":82.5308,"MEAN_ANOMALY":277.5806,"EPHEMERIS_TYPE":0,"CLASSIFICATION_TYPE":"U","NORAD_CAT_ID":61547,"ELEMENT_SET_NO":999,"REV_AT_EPOCH":7842,"BSTAR":2.19918e-7,"MEAN_MOTION_DOT":-3.52e-6,"MEAN_MOTION_DDOT":0}]
